[{"OBJECT_NAME":"OBJECT BE","OBJECT_ID":"2024-199BE","EPOCH":"2026-03-09T22:35:11.240448","MEAN_MOTION":15.34583634,"ECCENTRICITY":0.00126202,"INCLINATION":97.3163,"RA_OF_ASC_NODE":298.7137,"ARG_OF_PERICENTER":307.7021,"MEAN_ANOMALY":52.3078,"EPHEMERIS_TYPE":0,"CLASSIFICATION_TYPE":"U","NORAD_CAT_ID":61787,"ELEMENT_SET_NO":999,"REV_AT_EPOCH":12186,"BSTAR":0.00035348262,"MEAN_MOTION_DOT":0.00011799,"MEAN_MOTION_DDOT":0},{"OBJECT_NAME":"STARLINK-35382","OBJECT_ID":"2025-232Q","EPOCH":"2026-03-09T11:51:57.550176","MEAN_MOTION":15.30189182,"ECCENTRICITY":0.00013269,"INCLINATION":53.1592,"RA_OF_ASC_NODE":104.9559,"ARG_OF_PERICENTER":86.2334,"MEAN_ANOMALY":273.8819,"EPHEMERIS_TYPE":0,"CLASSIFICATION_TYPE":"U","NORAD_CAT_ID":66019,"ELEMENT_SET_NO":999,"REV_AT_EPOCH":2340,"BSTAR":0.00093906913,"MEAN_MOTION_DOT":0.00027547,"MEAN_MOTION_DDOT":0}]
